ZHONGXING-6C            
1 44067U 19012A   25236.62802721 -.00000347  00000+0  00000+0 0  9993
2 44067   0.0667 284.1699 0008162 139.2040 266.3079  1.00272010 23761
WGS 10 (USA 291)        
1 44071U 19014A   25212.91694802  .00000054  00000+0  00000+0 0  9999
2 44071   0.0157  88.0510 0000267 111.7150 140.4000  1.00270594 23400
TIANLIAN 2-01           
1 44076U 19017A   25236.61745383 -.00000119  00000+0  00000+0 0  9994
2 44076   0.0263 226.9669 0002637 319.4471  86.0160  1.00272336 23674
ARABSAT-6A              
1 44186U 19021A   25236.60818046  .00000141  00000+0  00000+0 0  9991
2 44186   0.0518 320.4240 0005474 263.5338 358.6226  1.00274878 23187
BEIDOU-3 IGSO-1         
1 44204U 19023A   25235.74277530 -.00000202  00000+0  00000+0 0  9994
2 44204  58.2777  40.7198 0024644 215.7189 102.3313  1.00277675  4220
BEIDOU-2 G8             
1 44231U 19027A   25236.63080056 -.00000261  00000+0  00000+0 0  9997
2 44231   1.8601  75.1916 0003813 233.0769  36.3717  1.00266859 23106
YAMAL 601               
1 44307U 19031A   25235.54119170  .00000104  00000+0  00000+0 0  9990
2 44307   0.0098 151.0151 0002473 358.9915  65.8896  1.00273040 22932
AT&T T-16               
1 44333U 19034A   25236.31579690 -.00000128  00000+0  00000+0 0  9992
2 44333   0.0171  99.3746 0000377 313.1809 293.1099  1.00270072 22655
EUTELSAT 7C             
1 44334U 19034B   25236.24667116  .00000034  00000+0  00000+0 0  9991
2 44334   0.0730 186.4603 0003122 313.3382 288.7651  1.00270838  3851
BEIDOU-3 IGSO-2         
1 44337U 19035A   25235.69754054 -.00000169  00000+0  00000+0 0  9991
2 44337  55.2151 161.4783 0035031 209.6028 328.9742  1.00249977 22683
COSMOS 2539             
1 44457U 19048A   25232.60752469  .00000063  00000+0  00000+0 0  9996
2 44457   0.0192 117.6028 0000379  25.6516  56.6088  1.00271381 22210
EDRS-C                  
1 44475U 19049A   25236.53034693 -.00000274  00000+0  00000+0 0  9990
2 44475   0.0548 104.6469 0001221  65.1975 136.6055  1.00273960 22235
INTELSAT 39 (IS-39)     
1 44476U 19049B   25236.60226176  .00000000  00000+0  00000+0 0  9994
2 44476   0.0239 130.8675 0000921 210.3481 270.6550  1.00270151 22154
AMOS-17                 
1 44479U 19050A   25236.60549378  .00000000  00000+0  00000+0 0  9991
2 44479   0.0208 117.6334 0002171  35.9873  54.4656  1.00271656 22216
AEHF-5 (USA 292)        
1 44481U 19051A   25236.60044799 -.00000270  00000+0  00000+0 0  9992
2 44481   1.8581 318.2599 0064605   9.4872 314.6062  1.00270817 22286
EUTELSAT 5 WEST B       
1 44624U 19067A   25236.38698513 -.00000055  00000+0  00000+0 0  9993
2 44624   0.0902 310.9353 0003003 206.4814 309.7728  1.00272614 21460
MEV-1                   
1 44625U 19067B   25212.93600035 -.00000138  00000+0  00000+0 0  9993
2 44625   0.3397  82.5138 0000340 231.5229 128.8627  1.00277994 21100
TJS-4                   
1 44637U 19070A   25236.64945979 -.00000182  00000+0  00000+0 0  9992
2 44637   0.0501 275.2661 0002508 243.8180 131.4090  1.00273416 21490
BEIDOU-3 IGSO-3         
1 44709U 19073A   25235.53584639 -.00000158  00000+0  00000+0 0  9997
2 44709  55.3096 284.1154 0045685 191.0403 168.9742  1.00278051 21470
TIBA-1                  
1 44800U 19080A   25236.60922046  .00000144  00000+0  00000+0 0  9998
2 44800   0.0575   1.6349 0002093 161.5990  64.6884  1.00270687 21081
INMARSAT GX5            
1 44801U 19080B   25236.60436711  .00000063  00000+0  00000+0 0  9998
2 44801   0.0495  41.5647 0002238 127.2671  32.8512  1.00273304  3818
JCSAT-18 (KACIFIC 1)    
1 44868U 19091A   25235.84678120 -.00000216  00000+0  00000+0 0  9991
2 44868   0.0478 290.4963 0000544 305.8994 190.8193  1.00272240 21029
ELEKTRO-L 3             
1 44903U 19095A   25236.61719383 -.00000109  00000+0  00000+0 0  9999
2 44903   0.0506  75.3839 0001451 142.7727  53.2056  1.00271674 20730
SHIJIAN-20 (SJ-20)      
1 44910U 19097A   25236.77995433 -.00000219  00000+0  00000+0 0  9990
2 44910   4.1557  78.7147 0004516 329.5177 293.5041  1.00271506 20723
TJS-5                   
1 44978U 20002A   25231.86502926 -.00000359  00000+0  00000+0 0  9993
2 44978   0.0469 105.5014 0003243  47.9842 233.8856  1.00269244 20673
GSAT-30                 
1 45026U 20005A   25236.60389619 -.00000177  00000+0  00000+0 0  9998
2 45026   0.0415 100.5710 0002828  21.5922 151.3605  1.00272379 20536
EUTELSAT KONNECT        
1 45027U 20005B   25236.60358711  .00000037  00000+0  00000+0 0  9992
2 45027   0.0667 100.0248 0001477  70.4180  27.1462  1.00270290 21357
JCSAT-17                
1 45245U 20013A   25236.53199278 -.00000325  00000+0  00000+0 0  9997
2 45245   5.4224 353.9111 0004181 160.6599 145.9854  1.00271562 20251
GEO-KOMPSAT-2B          
1 45246U 20013B   25236.46177844 -.00000357  00000+0  00000+0 0  9990
2 45246   0.0588 284.5437 0001189 303.3894  39.5467  1.00272388 20306
BEIDOU-3 G2             
1 45344U 20017A   25236.61797383 -.00000153  00000+0  00000+0 0  9990
2 45344   2.9920  41.7588 0001789 136.2765  97.6086  1.00272787 20284
AEHF-6 (USA 298)        
1 45465U 20022B   25236.52765646 -.00000312  00000+0  00000+0 0  9994
2 45465   3.2124 298.5805 0041939   9.6865 352.4279  1.00266687 20049
BEIDOU-3 G3             
1 45807U 20040A   25232.78409072 -.00000372  00000+0  00000+0 0  9992
2 45807   1.7116  65.2529 0004308 335.4598 321.4431  1.00274649 19059
APSTAR-6D               
1 45863U 20045A   25233.20259501 -.00000337  00000+0  00000+0 0  9998
2 45863   0.0464  98.4356 0002103 349.4216  88.8301  1.00270933 18857
KOREASAT 116            
1 45920U 20048A   25236.57808597 -.00000374  00000+0  00000+0 0  9994
2 45920   0.0218  98.5939 0001083  78.8947 119.9182  1.00270875 18663
EXPRESS 103             
1 45985U 20053A   25236.12167541  .00000000  00000+0  00000+0 0  9994
2 45985   0.0240 129.9934 0000444 131.7699 211.1915  1.00268634 18676
EXPRESS 80              
1 45986U 20053B   25235.85448344 -.00000151  00000+0  00000+0 0  9995
2 45986   0.0462 260.4317 0001554 149.8041 309.7625  1.00271390 18656
BSAT-4B                 
1 46112U 20056A   25236.62205372 -.00000362  00000+0  00000+0 0  9992
2 46112   0.0461 231.2514 0003968 279.5598 156.0942  1.00270636 18412
MEV-2                   
1 46113U 20056B   25236.41086325 -.00000024  00000+0  00000+0 0  9990
2 46113   0.0502 279.8582 0000673 250.9064 309.0896  1.00271162 19170
GALAXY 30 (G-30)        
1 46114U 20056C   25236.54586796  .00000024  00000+0  00000+0 0  9991
2 46114   0.0191 123.4195 0002171  36.6783 244.4706  1.00272885 18311
GAOFEN-13 01            
1 46610U 20071A   25236.62560053 -.00000375  00000+0  00000+0 0  9996
2 46610   0.3190  85.6606 0027650 118.8880 111.8862  1.00270460 17945
TIANTONG-1 2            
1 46916U 20082A   25236.62690053 -.00000368  00000+0  00000+0 0  9993
2 46916   1.3381 301.9393 0001402 293.0840  88.6703  1.00269030 17680
LUCAS (JDRS-1)          
1 47202U 20089A   25236.60038372 -.00000248  00000+0  00000+0 0  9994
2 47202   0.0435  86.5289 0002147  67.0733 126.4341  1.00272497 17446
SXM-7                   
1 47240U 20096A   25236.15703554 -.00000219  00000+0  00000+0 0  9993
2 47240   0.0131 124.7332 0004102   9.0086 170.2787  1.00271548  4460
CMS-01                  
1 47256U 20099A   25236.60389602 -.00000177  00000+0  00000+0 0  9990
2 47256   0.0683  95.1032 0005737 161.6374  16.7904  1.00272288 17222
TURKSAT 5A              
1 47306U 21001A   25236.30461573  .00000141  00000+0  00000+0 0  9995
2 47306   0.0234  95.8376 0000162 248.2611 129.2986  1.00271683 16992
TIANTONG-1 3            
1 47321U 21003A   25236.61832050 -.00000167  00000+0  00000+0 0  9999
2 47321   2.1029 323.9401 0003214 247.0748  66.2585  1.00272286 16981
TJS-6                   
1 47613U 21010A   25236.15322492  .00000029  00000+0  00000+0 0  9990
2 47613   0.1765 261.5794 0000638 209.1118  95.6297  1.00274555 16830
SBIRS GEO-5 (USA 315)   
1 48618U 21042A   25236.33533156 -.00000283  00000+0  00000+0 0  9995
2 48618   5.5003 327.1386 0005928 194.7301  25.8380  1.00276818 15792
FENGYUN 4B              
1 48808U 21047A   25232.82891918 -.00000349  00000+0  00000+0 0  9997
2 48808   0.1567  82.0275 0004441 251.6629  38.8305  1.00273464 15568
SXM-8                   
1 48838U 21049A   25236.15703554  .00000000  00000+0  00000+0 0  9993
2 48838   0.0200 100.3609 0005252 298.7250 264.9595  1.00268321 15617
TIANLIAN 1-05           
1 49011U 21063A   25236.60549378  .00000096  00000+0  00000+0 0  9990
2 49011   0.8249  82.4494 0003246 119.8999   5.4835  1.00272327 15108
STAR ONE D2             
1 49055U 21069A   25236.34905867 -.00000278  00000+0  00000+0 0  9997
2 49055   0.0151 114.9812 0002680  48.7458 224.7950  1.00269610 14953
EUTELSAT QUANTUM        
1 49056U 21069B   25236.54024741  .00000114  00000+0  00000+0 0  9991
2 49056   0.0028  15.5869 0001854 158.5612  41.0726  1.00272542 14958
ZHONGXING-2E            
1 49062U 21071A   25236.65502963 -.00000303  00000+0  00000+0 0  9991
2 49062   0.0607 289.3204 0001721 257.6003 120.1002  1.00270942 15061
TJS-7                   
1 49115U 21077A   25236.58244035 -.00000137  00000+0  00000+0 0  9996
2 49115   0.2646 267.9892 0002127 197.4488 337.8992  1.00271863  6573
CHINASAT 9B             
1 49125U 21080A   25232.82891918 -.00000331  00000+0  00000+0 0  9998
2 49125   0.0416 265.4716 0003031 260.3396 203.4096  1.00271547 14636
SHIJIAN-21 (SJ-21)      
1 49330U 21094A   25236.79740823 -.00000360  00000+0  00000+0 0  9991
2 49330   4.4378  62.8763 0055550 163.9468 160.6854  1.00280578 14271
SES-17                  
1 49332U 21095A   25236.01784830 -.00000287  00000+0  00000+0 0  9993
2 49332   0.0140  75.4789 0001441  89.5888 106.7930  1.00271878 14874
SYRACUSE 4A             
1 49333U 21095B   25236.53981407  .00000000  00000+0  00000+0 0  9992
2 49333   0.0212 141.1847 0001622 359.8203  71.8864  1.00269464 14984
